{
  "type": "FeatureCollection",
  "features": [
    {
      "type": "Feature",
      "properties": {
        "norad_id": 30059,
        "name": "FENGYUN 1C DEB",
        "group": "fengyun-1c-debris",
        "lat": 21.27366473814793,
        "lon": 160.71476782690345,
        "alt_km": 1313.9802292258637,
        "timestamp": "2025-12-07T07:31:36.571747+00:00",
        "meta_object_name": "FENGYUN 1C DEB",
        "meta_object_id": "1999-025PL",
        "meta_epoch": "2025-12-06T22:09:16.640064",
        "meta_mean_motion": 13.45488928,
        "meta_eccentricity": 0.0326836,
        "meta_inclination": 98.8221,
        "meta_ra_of_asc_node": 336.9043,
        "meta_arg_of_pericenter": 317.4727,
        "meta_mean_anomaly": 111.7749,
        "meta_ephemeris_type": 0,
        "meta_classification_type": "U",
        "meta_norad_cat_id": 30059,
        "meta_element_set_no": 999,
        "meta_rev_at_epoch": 92719,
        "meta_bstar": 0.00065833178,
        "meta_mean_motion_dot": 5e-06,
        "meta_mean_motion_ddot": 0,
        "tle_line1": "1 30059U 99025PL  25340.92310926  .00000500  00000+0  65833-3 0  9990",
        "tle_line2": "2 30059  98.8221 336.9043 0326836 317.4727 111.7749 13.45488928927196"
      },
      "geometry": {
        "type": "Point",
        "coordinates": [
          160.71476782690345,
          21.27366473814793
        ]
      }
    },
    {
      "type": "Feature",
      "properties": {
        "norad_id": 30060,
        "name": "FENGYUN 1C DEB",
        "group": "fengyun-1c-debris",
        "lat": 71.51656061728893,
        "lon": 178.9992433735818,
        "alt_km": 835.7888292949092,
        "timestamp": "2025-12-07T07:31:36.571757+00:00",
        "meta_object_name": "FENGYUN 1C DEB",
        "meta_object_id": "1999-025PM",
        "meta_epoch": "2025-12-06T20:44:34.370880",
        "meta_mean_motion": 13.43728874,
        "meta_eccentricity": 0.03441054,
        "meta_inclination": 99.3145,
        "meta_ra_of_asc_node": 207.9861,
        "meta_arg_of_pericenter": 86.2791,
        "meta_mean_anomaly": 335.9744,
        "meta_ephemeris_type": 0,
        "meta_classification_type": "U",
        "meta_norad_cat_id": 30060,
        "meta_element_set_no": 999,
        "meta_rev_at_epoch": 92164,
        "meta_bstar": 0.0030483515,
        "meta_mean_motion_dot": 2.467e-05,
        "meta_mean_motion_ddot": 0,
        "tle_line1": "1 30060U 99025PM  25340.86428670  .00002467  00000+0  30484-2 0  9998",
        "tle_line2": "2 30060  99.3145 207.9861 0344105  86.2791 335.9744 13.43728874921649"
      },
      "geometry": {
        "type": "Point",
        "coordinates": [
          178.9992433735818,
          71.51656061728893
        ]
      }
    },
    {
      "type": "Feature",
      "properties": {
        "norad_id": 30061,
        "name": "FENGYUN 1C DEB",
        "group": "fengyun-1c-debris",
        "lat": 49.850378167501,
        "lon": 75.54313820238832,
        "alt_km": 1315.2880018222522,
        "timestamp": "2025-12-07T07:31:36.571767+00:00",
        "meta_object_name": "FENGYUN 1C DEB",
        "meta_object_id": "1999-025PN",
        "meta_epoch": "2025-12-06T21:10:43.190976",
        "meta_mean_motion": 13.46402656,
        "meta_eccentricity": 0.03725829,
        "meta_inclination": 101.8758,
        "meta_ra_of_asc_node": 89.4767,
        "meta_arg_of_pericenter": 263.7899,
        "meta_mean_anomaly": 216.4159,
        "meta_ephemeris_type": 0,
        "meta_classification_type": "U",
        "meta_norad_cat_id": 30061,
        "meta_element_set_no": 999,
        "meta_rev_at_epoch": 92020,
        "meta_bstar": 0.0048280268,
        "meta_mean_motion_dot": 4.367e-05,
        "meta_mean_motion_ddot": 0,
        "tle_line1": "1 30061U 99025PN  25340.88244434  .00004367  00000+0  48280-2 0  9999",
        "tle_line2": "2 30061 101.8758  89.4767 0372582 263.7899 216.4159 13.46402656920202"
      },
      "geometry": {
        "type": "Point",
        "coordinates": [
          75.54313820238832,
          49.850378167501
        ]
      }
    },
    {
      "type": "Feature",
      "properties": {
        "norad_id": 30062,
        "name": "FENGYUN 1C DEB",
        "group": "fengyun-1c-debris",
        "lat": -70.22912484968803,
        "lon": 145.18974711448067,
        "alt_km": 912.1192904797863,
        "timestamp": "2025-12-07T07:31:36.571777+00:00",
        "meta_object_name": "FENGYUN 1C DEB",
        "meta_object_id": "1999-025PP",
        "meta_epoch": "2025-12-06T23:45:32.434272",
        "meta_mean_motion": 14.07099733,
        "meta_eccentricity": 0.00496502,
        "meta_inclination": 98.7807,
        "meta_ra_of_asc_node": 350.3426,
        "meta_arg_of_pericenter": 64.2288,
        "meta_mean_anomaly": 349.435,
        "meta_ephemeris_type": 0,
        "meta_classification_type": "U",
        "meta_norad_cat_id": 30062,
        "meta_element_set_no": 999,
        "meta_rev_at_epoch": 96827,
        "meta_bstar": 0.00064023203,
        "meta_mean_motion_dot": 1.04e-05,
        "meta_mean_motion_ddot": 0,
        "tle_line1": "1 30062U 99025PP  25340.98995873  .00001040  00000+0  64023-3 0  9990",
        "tle_line2": "2 30062  98.7807 350.3426 0049650  64.2288 349.4350 14.07099733968272"
      },
      "geometry": {
        "type": "Point",
        "coordinates": [
          145.18974711448067,
          -70.22912484968803
        ]
      }
    },
    {
      "type": "Feature",
      "properties": {
        "norad_id": 30063,
        "name": "FENGYUN 1C DEB",
        "group": "fengyun-1c-debris",
        "lat": 77.81034100720669,
        "lon": -175.68617615155017,
        "alt_km": 817.9395227660534,
        "timestamp": "2025-12-07T07:31:36.571787+00:00",
        "meta_object_name": "FENGYUN 1C DEB",
        "meta_object_id": "1999-025PQ",
        "meta_epoch": "2025-12-06T22:52:46.630272",
        "meta_mean_motion": 14.15608732,
        "meta_eccentricity": 0.00327372,
        "meta_inclination": 98.5207,
        "meta_ra_of_asc_node": 320.0224,
        "meta_arg_of_pericenter": 150.5356,
        "meta_mean_anomaly": 273.3595,
        "meta_ephemeris_type": 0,
        "meta_classification_type": "U",
        "meta_norad_cat_id": 30063,
        "meta_element_set_no": 999,
        "meta_rev_at_epoch": 97583,
        "meta_bstar": 0.00012575699,
        "meta_mean_motion_dot": 2.06e-06,
        "meta_mean_motion_ddot": 0,
        "tle_line1": "1 30063U 99025PQ  25340.95331748  .00000206  00000+0  12576-3 0  9992",
        "tle_line2": "2 30063  98.5207 320.0224 0032737 150.5356 273.3595 14.15608732975838"
      },
      "geometry": {
        "type": "Point",
        "coordinates": [
          -175.68617615155017,
          77.81034100720669
        ]
      }
    },
    {
      "type": "Feature",
      "properties": {
        "norad_id": 30064,
        "name": "FENGYUN 1C DEB",
        "group": "fengyun-1c-debris",
        "lat": -69.00541282040898,
        "lon": 149.12557922695342,
        "alt_km": 878.7538185418516,
        "timestamp": "2025-12-07T07:31:36.571797+00:00",
        "meta_object_name": "FENGYUN 1C DEB",
        "meta_object_id": "1999-025PR",
        "meta_epoch": "2025-12-06T23:50:51.303840",
        "meta_mean_motion": 14.14263929,
        "meta_eccentricity": 0.00664962,
        "meta_inclination": 98.6619,
        "meta_ra_of_asc_node": 352.2202,
        "meta_arg_of_pericenter": 127.6012,
        "meta_mean_anomaly": 294.3707,
        "meta_ephemeris_type": 0,
        "meta_classification_type": "U",
        "meta_norad_cat_id": 30064,
        "meta_element_set_no": 999,
        "meta_rev_at_epoch": 97424,
        "meta_bstar": 0.00027599052,
        "meta_mean_motion_dot": 4.96e-06,
        "meta_mean_motion_ddot": 0,
        "tle_line1": "1 30064U 99025PR  25340.99364935  .00000496  00000+0  27599-3 0  9993",
        "tle_line2": "2 30064  98.6619 352.2202 0066496 127.6012 294.3707 14.14263929974249"
      },
      "geometry": {
        "type": "Point",
        "coordinates": [
          149.12557922695342,
          -69.00541282040898
        ]
      }
    },
    {
      "type": "Feature",
      "properties": {
        "norad_id": 30065,
        "name": "FENGYUN 1C DEB",
        "group": "fengyun-1c-debris",
        "lat": 18.683286232979906,
        "lon": -48.43431984629935,
        "alt_km": 853.6336926405893,
        "timestamp": "2025-12-07T07:31:36.571807+00:00",
        "meta_object_name": "FENGYUN 1C DEB",
        "meta_object_id": "1999-025PS",
        "meta_epoch": "2025-12-06T21:02:58.139520",
        "meta_mean_motion": 13.86911775,
        "meta_eccentricity": 0.01318612,
        "meta_inclination": 98.6833,
        "meta_ra_of_asc_node": 314.1223,
        "meta_arg_of_pericenter": 47.5332,
        "meta_mean_anomaly": 313.6884,
        "meta_ephemeris_type": 0,
        "meta_classification_type": "U",
        "meta_norad_cat_id": 30065,
        "meta_element_set_no": 999,
        "meta_rev_at_epoch": 95590,
        "meta_bstar": 0.00028404451,
        "meta_mean_motion_dot": 3.16e-06,
        "meta_mean_motion_ddot": 0,
        "tle_line1": "1 30065U 99025PS  25340.87706180  .00000316  00000+0  28404-3 0  9990",
        "tle_line2": "2 30065  98.6833 314.1223 0131861  47.5332 313.6884 13.86911775955902"
      },
      "geometry": {
        "type": "Point",
        "coordinates": [
          -48.43431984629935,
          18.683286232979906
        ]
      }
    }
  ]
}